{
  "type": "FeatureCollection",
  "features": [
    {
      "type": "Feature",
      "properties": {
        "norad_id": 33860,
        "name": "IRIDIUM 33 DEB",
        "group": "iridium-33-debris",
        "lat": -58.72881128318201,
        "lon": 24.930983362689954,
        "alt_km": 676.6268491712945,
        "timestamp": "2025-12-04T10:51:50.490183+00:00",
        "meta_object_name": "IRIDIUM 33 DEB",
        "meta_object_id": "1997-051AD",
        "meta_epoch": "2025-12-03T10:38:45.202272",
        "meta_mean_motion": 14.67161247,
        "meta_eccentricity": 0.0008596,
        "meta_inclination": 86.385,
        "meta_ra_of_asc_node": 31.3522,
        "meta_arg_of_pericenter": 28.3403,
        "meta_mean_anomaly": 346.5569,
        "meta_ephemeris_type": 0,
        "meta_classification_type": "U",
        "meta_norad_cat_id": 33860,
        "meta_element_set_no": 999,
        "meta_rev_at_epoch": 88586,
        "meta_bstar": 0.0017679929,
        "meta_mean_motion_dot": 9.972e-05,
        "meta_mean_motion_ddot": 0,
        "tle_line1": "1 33860U 97051AD  25337.44357873  .00009972  00000+0  17680-2 0  9993",
        "tle_line2": "2 33860  86.3850  31.3522 0008596  28.3403 346.5569 14.67161247885868"
      },
      "geometry": {
        "type": "Point",
        "coordinates": [
          24.930983362689954,
          -58.72881128318201
        ]
      }
    },
    {
      "type": "Feature",
      "properties": {
        "norad_id": 33862,
        "name": "IRIDIUM 33 DEB",
        "group": "iridium-33-debris",
        "lat": -84.30813829192914,
        "lon": 2.1444699642195917,
        "alt_km": 708.8750407503167,
        "timestamp": "2025-12-04T10:51:50.490195+00:00",
        "meta_object_name": "IRIDIUM 33 DEB",
        "meta_object_id": "1997-051AF",
        "meta_epoch": "2025-12-04T03:21:58.109760",
        "meta_mean_motion": 14.69247155,
        "meta_eccentricity": 0.0053987,
        "meta_inclination": 86.4102,
        "meta_ra_of_asc_node": 41.3217,
        "meta_arg_of_pericenter": 97.8676,
        "meta_mean_anomaly": 325.1701,
        "meta_ephemeris_type": 0,
        "meta_classification_type": "U",
        "meta_norad_cat_id": 33862,
        "meta_element_set_no": 999,
        "meta_rev_at_epoch": 88697,
        "meta_bstar": 0.0034176,
        "meta_mean_motion_dot": 0.00020659,
        "meta_mean_motion_ddot": 0,
        "tle_line1": "1 33862U 97051AF  25338.14025590  .00020659  00000+0  34176-2 0  9995",
        "tle_line2": "2 33862  86.4102  41.3217 0053987  97.8676 325.1701 14.69247155886979"
      },
      "geometry": {
        "type": "Point",
        "coordinates": [
          2.1444699642195917,
          -84.30813829192914
        ]
      }
    },
    {
      "type": "Feature",
      "properties": {
        "norad_id": 33866,
        "name": "IRIDIUM 33 DEB",
        "group": "iridium-33-debris",
        "lat": -34.51779779382156,
        "lon": -80.90795104647347,
        "alt_km": 740.789522478165,
        "timestamp": "2025-12-04T10:51:50.490206+00:00",
        "meta_object_name": "IRIDIUM 33 DEB",
        "meta_object_id": "1997-051AK",
        "meta_epoch": "2025-12-04T02:15:41.511744",
        "meta_mean_motion": 14.25225856,
        "meta_eccentricity": 0.0113757,
        "meta_inclination": 86.2998,
        "meta_ra_of_asc_node": 96.6929,
        "meta_arg_of_pericenter": 188.9524,
        "meta_mean_anomaly": 347.038,
        "meta_ephemeris_type": 0,
        "meta_classification_type": "U",
        "meta_norad_cat_id": 33866,
        "meta_element_set_no": 999,
        "meta_rev_at_epoch": 86687,
        "meta_bstar": 0.0013814,
        "meta_mean_motion_dot": 3.492e-05,
        "meta_mean_motion_ddot": 0,
        "tle_line1": "1 33866U 97051AK  25338.09423046  .00003492  00000+0  13814-2 0  9993",
        "tle_line2": "2 33866  86.2998  96.6929 0113757 188.9524 347.0380 14.25225856866872"
      },
      "geometry": {
        "type": "Point",
        "coordinates": [
          -80.90795104647347,
          -34.51779779382156
        ]
      }
    },
    {
      "type": "Feature",
      "properties": {
        "norad_id": 33867,
        "name": "IRIDIUM 33 DEB",
        "group": "iridium-33-debris",
        "lat": 13.881601406914282,
        "lon": 173.4681464415618,
        "alt_km": 399.9209417315333,
        "timestamp": "2025-12-04T10:51:50.490218+00:00",
        "meta_object_name": "IRIDIUM 33 DEB",
        "meta_object_id": "1997-051AL",
        "meta_epoch": "2025-12-04T00:53:10.204224",
        "meta_mean_motion": 15.54633493,
        "meta_eccentricity": 0.0012389,
        "meta_inclination": 86.3627,
        "meta_ra_of_asc_node": 354.5807,
        "meta_arg_of_pericenter": 97.6739,
        "meta_mean_anomaly": 262.5931,
        "meta_ephemeris_type": 0,
        "meta_classification_type": "U",
        "meta_norad_cat_id": 33867,
        "meta_element_set_no": 999,
        "meta_rev_at_epoch": 89375,
        "meta_bstar": 0.010164,
        "meta_mean_motion_dot": 0.00736718,
        "meta_mean_motion_ddot": 0,
        "tle_line1": "1 33867U 97051AL  25338.03692366  .00736718  00000+0  10164-1 0  9999",
        "tle_line2": "2 33867  86.3627 354.5807 0012389  97.6739 262.5931 15.54633493893750"
      },
      "geometry": {
        "type": "Point",
        "coordinates": [
          173.4681464415618,
          13.881601406914282
        ]
      }
    },
    {
      "type": "Feature",
      "properties": {
        "norad_id": 33870,
        "name": "IRIDIUM 33 DEB",
        "group": "iridium-33-debris",
        "lat": 59.71254084816706,
        "lon": 68.04243784570673,
        "alt_km": 745.8454506178887,
        "timestamp": "2025-12-04T10:51:50.490228+00:00",
        "meta_object_name": "IRIDIUM 33 DEB",
        "meta_object_id": "1997-051AP",
        "meta_epoch": "2025-12-03T16:55:20.809344",
        "meta_mean_motion": 14.45765696,
        "meta_eccentricity": 0.00205196,
        "meta_inclination": 86.3759,
        "meta_ra_of_asc_node": 62.133,
        "meta_arg_of_pericenter": 208.1182,
        "meta_mean_anomaly": 283.557,
        "meta_ephemeris_type": 0,
        "meta_classification_type": "U",
        "meta_norad_cat_id": 33870,
        "meta_element_set_no": 999,
        "meta_rev_at_epoch": 88006,
        "meta_bstar": 0.0013399091,
        "meta_mean_motion_dot": 4.78e-05,
        "meta_mean_motion_ddot": 0,
        "tle_line1": "1 33870U 97051AP  25337.70510196  .00004780  00000+0  13399-2 0  9997",
        "tle_line2": "2 33870  86.3759  62.1330 0020519 208.1182 283.5570 14.45765696880060"
      },
      "geometry": {
        "type": "Point",
        "coordinates": [
          68.04243784570673,
          59.71254084816706
        ]
      }
    },
    {
      "type": "Feature",
      "properties": {
        "norad_id": 33881,
        "name": "IRIDIUM 33 DEB",
        "group": "iridium-33-debris",
        "lat": -28.107603245963123,
        "lon": 108.40746805507936,
        "alt_km": 739.0118725929187,
        "timestamp": "2025-12-04T10:51:50.490239+00:00",
        "meta_object_name": "IRIDIUM 33 DEB",
        "meta_object_id": "1997-051BA",
        "meta_epoch": "2025-12-03T08:52:49.327968",
        "meta_mean_motion": 14.56290168,
        "meta_eccentricity": 0.0061157,
        "meta_inclination": 86.3865,
        "meta_ra_of_asc_node": 110.812,
        "meta_arg_of_pericenter": 205.0667,
        "meta_mean_anomaly": 213.9917,
        "meta_ephemeris_type": 0,
        "meta_classification_type": "U",
        "meta_norad_cat_id": 33881,
        "meta_element_set_no": 999,
        "meta_rev_at_epoch": 87364,
        "meta_bstar": 0.002603,
        "meta_mean_motion_dot": 0.00011848,
        "meta_mean_motion_ddot": 0,
        "tle_line1": "1 33881U 97051BA  25337.37001537  .00011848  00000+0  26030-2 0  9995",
        "tle_line2": "2 33881  86.3865 110.8120 0061157 205.0667 213.9917 14.56290168873642"
      },
      "geometry": {
        "type": "Point",
        "coordinates": [
          108.40746805507936,
          -28.107603245963123
        ]
      }
    },
    {
      "type": "Feature",
      "properties": {
        "norad_id": 33884,
        "name": "IRIDIUM 33 DEB",
        "group": "iridium-33-debris",
        "lat": 16.857957217453848,
        "lon": 14.66155855160896,
        "alt_km": 632.0334442919439,
        "timestamp": "2025-12-04T10:51:50.490250+00:00",
        "meta_object_name": "IRIDIUM 33 DEB",
        "meta_object_id": "1997-051BD",
        "meta_epoch": "2025-12-04T02:54:00.283968",
        "meta_mean_motion": 14.77168398,
        "meta_eccentricity": 0.0010613,
        "meta_inclination": 86.3697,
        "meta_ra_of_asc_node": 13.7089,
        "meta_arg_of_pericenter": 355.5376,
        "meta_mean_anomaly": 57.9595,
        "meta_ephemeris_type": 0,
        "meta_classification_type": "U",
        "meta_norad_cat_id": 33884,
        "meta_element_set_no": 999,
        "meta_rev_at_epoch": 88720,
        "meta_bstar": 0.0029953,
        "meta_mean_motion_dot": 0.00021274,
        "meta_mean_motion_ddot": 0,
        "tle_line1": "1 33884U 97051BD  25338.12083662  .00021274  00000+0  29953-2 0  9992",
        "tle_line2": "2 33884  86.3697  13.7089 0010613 355.5376  57.9595 14.77168398887209"
      },
      "geometry": {
        "type": "Point",
        "coordinates": [
          14.66155855160896,
          16.857957217453848
        ]
      }
    }
  ]
}